[{"OBJECT_NAME":"STARLINK-5753","OBJECT_ID":"2023-020N","EPOCH":"2026-03-09T04:40:40.135008","MEAN_MOTION":15.02539554,"ECCENTRICITY":0.00012443,"INCLINATION":43.0065,"RA_OF_ASC_NODE":7.4343,"ARG_OF_PERICENTER":269.1232,"MEAN_ANOMALY":90.9468,"EPHEMERIS_TYPE":0,"CLASSIFICATION_TYPE":"U","NORAD_CAT_ID":55581,"ELEMENT_SET_NO":999,"REV_AT_EPOCH":16884,"BSTAR":-9.278982e-6,"MEAN_MOTION_DOT":-3.29e-6,"MEAN_MOTION_DDOT":0},{"OBJECT_NAME":"PSLV R\/B","OBJECT_ID":"2007-001E","EPOCH":"2026-03-09T22:10:17.317056","MEAN_MOTION":14.97920804,"ECCENTRICITY":0.00208593,"INCLINATION":98.0304,"RA_OF_ASC_NODE":98.4358,"ARG_OF_PERICENTER":74.2404,"MEAN_ANOMALY":286.1116,"EPHEMERIS_TYPE":0,"CLASSIFICATION_TYPE":"U","NORAD_CAT_ID":29713,"ELEMENT_SET_NO":999,"REV_AT_EPOCH":3805,"BSTAR":0.00025269605,"MEAN_MOTION_DOT":2.927e-5,"MEAN_MOTION_DDOT":0}]
